OBJECT_NAME,OBJECT_ID,EPOCH,MEAN_MOTION,ECCENTRICITY,INCLINATION,RA_OF_ASC_NODE,ARG_OF_PERICENTER,MEAN_ANOMALY,EPHEMERIS_TYPE,CLASSIFICATION_TYPE,NORAD_CAT_ID,ELEMENT_SET_NO,REV_AT_EPOCH,BSTAR,MEAN_MOTION_DOT,MEAN_MOTION_DDOT
BALKAN-2,2026-100AW,2026-05-29T16:04:51.799008,15.19876952,.00049409,97.4094,47.8222,73.6437,286.5341,0,U,69024,999,399,.32393015E-3,.6888E-4,0
STARLINK-37592,2026-101A,2026-05-30T04:00:01.998720,15.55949846,.0001972,97.2847,5.0845,91.3060,80.7802,0,U,69025,999,506,-.31336E-1,-.1917152E-1,0
STARLINK-37637,2026-101B,2026-05-30T04:00:01.998720,15.49164706,.0001625,97.2840,5.0285,91.7690,313.4627,0,U,69026,999,506,.63406E-3,.34517E-3,0
STARLINK-37548,2026-101C,2026-05-30T04:00:01.998720,15.55374942,.0001535,97.2848,5.0815,65.9291,100.9823,0,U,69027,999,503,-.12319E-1,-.771069E-2,0
STARLINK-37634,2026-101D,2026-05-30T04:00:01.998720,15.61893662,.0001589,97.2837,5.1172,99.0015,155.0215,0,U,69028,999,506,-.10493E-1,-.823183E-2,0
STARLINK-37635,2026-101E,2026-05-30T04:00:01.998720,15.58604475,.0002286,97.2841,5.1089,92.0179,140.1853,0,U,69029,999,503,-.37749E-1,-.2512933E-1,0
STARLINK-37615,2026-101F,2026-05-30T04:00:01.998720,15.58081882,.0002062,97.2842,5.1137,100.4736,140.7408,0,U,69030,999,506,-.28901E-1,-.1915578E-1,0
STARLINK-37240,2026-101G,2026-05-30T04:00:01.998720,15.52128773,.0002479,97.2847,5.0718,99.9231,44.4268,0,U,69031,999,506,-.53841E-1,-.2837275E-1,0
STARLINK-37596,2026-101H,2026-05-30T04:00:01.998720,15.49163845,.0001142,97.2837,4.9900,89.1491,225.2291,0,U,69032,999,506,.31528E-3,.17079E-3,0
STARLINK-37591,2026-101J,2026-05-30T04:00:01.998720,15.51797995,.0001623,97.2844,5.0670,94.4770,36.2756,0,U,69033,999,506,-.13806E-1,-.759684E-2,0
STARLINK-37611,2026-101K,2026-05-30T04:00:01.998720,15.51639156,.0001979,97.2848,5.0896,110.9421,79.4551,0,U,69034,999,506,-.5072E-1,-.2650931E-1,0
STARLINK-37512,2026-101L,2026-05-30T04:00:01.998720,15.49162550,.0001303,97.2840,5.0158,104.8917,267.4198,0,U,69035,999,506,.68175E-3,.37128E-3,0
STARLINK-37609,2026-101M,2026-05-30T04:00:01.998720,15.49316826,.0001308,97.2841,4.9982,121.4878,210.7249,0,U,69036,999,503,-.42312E-2,-.224781E-2,0
STARLINK-37608,2026-101N,2026-05-30T04:00:01.998720,15.50451641,.0001992,97.2848,5.0679,86.7964,44.6049,0,U,69037,999,506,-.18624E-1,-.970064E-2,0
STARLINK-37466,2026-101P,2026-05-30T04:00:01.998720,15.49162408,.000144,97.2837,4.9894,86.7414,224.3977,0,U,69038,999,506,.62706E-3,.3413E-3,0
STARLINK-37612,2026-101Q,2026-05-30T04:00:01.998720,15.52575799,.0001747,97.2846,5.0852,89.9402,84.4865,0,U,69039,999,506,-.12684E-1,-.711862E-2,0
STARLINK-37616,2026-101R,2026-05-30T04:00:01.998720,15.56025292,.0002008,97.2836,5.1118,103.1262,134.1972,0,U,69040,999,506,-.22204E-1,-.138884E-1,0
STARLINK-37614,2026-101S,2026-05-30T04:00:01.998720,15.49162969,.0001686,97.2853,5.0711,104.2316,39.9045,0,U,69041,999,506,.6955E-3,.37884E-3,0
STARLINK-37644,2026-101T,2026-05-30T04:00:01.998720,15.49179799,.0001236,97.2844,5.0750,120.8541,32.8677,0,U,69042,999,506,.31132E-3,.16872E-3,0
STARLINK-37571,2026-101U,2026-05-30T04:00:01.998720,15.50643002,.0002133,97.2847,5.0796,65.3115,98.6617,0,U,69043,999,506,-.40291E-1,-.2056062E-1,0
STARLINK-37664,2026-101V,2026-05-30T04:00:01.998720,15.49153387,.0001595,97.2840,4.9949,99.5773,220.9998,0,U,69044,999,503,.96152E-3,.52489E-3,0
STARLINK-37667,2026-101W,2026-05-30T04:00:01.998720,15.59683518,.0001494,97.2836,5.1594,110.2947,243.3052,0,U,69045,999,506,-.3734E-1,-.2578811E-1,0
STARLINK-37666,2026-101X,2026-05-30T04:00:01.998720,15.61354226,.0001359,97.2839,5.1698,110.7289,257.6741,0,U,69046,999,506,-.25698E-1,-.1928292E-1,0
STARLINK-37576,2026-101Y,2026-05-30T04:00:01.998720,15.61565451,.0001399,97.2842,5.1759,101.8733,278.9850,0,U,69047,999,503,-.25502E-1,-.1929297E-1,0
STARLINK-37663,2026-101Z,2026-05-30T04:00:01.998720,15.49155003,.0001544,97.2849,5.0916,101.8870,86.6998,0,U,69048,999,506,.87083E-3,.47502E-3,0
TIANZHOU-10,2026-102A,2026-05-29T22:16:47.051040,15.59989407,.00106534,41.4693,73.0539,305.7656,54.2192,0,U,69049,999,301,.3200742E-3,.26428E-3,0
QIANFAN-127,2026-104A,2026-05-30T02:35:46.027104,14.21689412,.0004576,88.9863,343.6772,153.3263,206.8164,0,U,69073,999,252,.66475E-4,.16E-5,0
QIANFAN-128,2026-104B,2026-05-30T03:31:11.372160,14.18044451,.0003878,88.9864,343.6832,148.7778,211.3642,0,U,69074,999,252,.63383E-4,.144E-5,0
QIANFAN-129,2026-104C,2026-05-30T03:43:06.248352,14.25498835,.0004137,88.9863,343.6655,159.6624,200.4735,0,U,69075,999,253,.59929E-4,.156E-5,0
QIANFAN-130,2026-104D,2026-05-30T03:16:53.145408,14.18733710,.000403,88.9863,343.6816,138.7199,221.4295,0,U,69076,999,252,.68457E-4,.156E-5,0
