BALKAN-2                
1 69024U 26100AW  26149.67004397  .00006888  00000+0  32393-3 0  9990
2 69024  97.4094  47.8222 0004940  73.6437 286.5341 15.19876952  3991
STARLINK-37592          
1 69025U 26101A   26150.16668980 -.01917152  00000+0 -31336-1 0  9994
2 69025  97.2847   5.0845 0001972  91.3060  80.7802 15.55949846  5063
STARLINK-37637          
1 69026U 26101B   26150.16668980  .00034517  00000+0  63406-3 0  9992
2 69026  97.2840   5.0285 0001625  91.7690 313.4627 15.49164706  5061
STARLINK-37548          
1 69027U 26101C   26150.16668980 -.00771069  00000+0 -12319-1 0  9990
2 69027  97.2848   5.0815 0001535  65.9291 100.9823 15.55374942  5035
STARLINK-37634          
1 69028U 26101D   26150.16668980 -.00823183  00000+0 -10493-1 0  9997
2 69028  97.2837   5.1172 0001589  99.0015 155.0215 15.61893662  5063
STARLINK-37635          
1 69029U 26101E   26150.16668980 -.02512933  00000+0 -37749-1 0  9991
2 69029  97.2841   5.1089 0002286  92.0179 140.1853 15.58604475  5033
STARLINK-37615          
1 69030U 26101F   26150.16668980 -.01915578  00000+0 -28901-1 0  9994
2 69030  97.2842   5.1137 0002062 100.4736 140.7408 15.58081882  5061
STARLINK-37240          
1 69031U 26101G   26150.16668980 -.02837275  00000+0 -53841-1 0  9994
2 69031  97.2847   5.0718 0002479  99.9231  44.4268 15.52128773  5064
STARLINK-37596          
1 69032U 26101H   26150.16668980  .00017079  00000+0  31528-3 0  9993
2 69032  97.2837   4.9900 0001142  89.1491 225.2291 15.49163845  5060
STARLINK-37591          
1 69033U 26101J   26150.16668980 -.00759684  00000+0 -13806-1 0  9998
2 69033  97.2844   5.0670 0001623  94.4770  36.2756 15.51797995  5066
STARLINK-37611          
1 69034U 26101K   26150.16668980 -.02650931  00000+0 -50720-1 0  9992
2 69034  97.2848   5.0896 0001979 110.9421  79.4551 15.51639156  5068
STARLINK-37512          
1 69035U 26101L   26150.16668980  .00037128  00000+0  68175-3 0  9991
2 69035  97.2840   5.0158 0001303 104.8917 267.4198 15.49162550  5067
STARLINK-37609          
1 69036U 26101M   26150.16668980 -.00224781  00000+0 -42312-2 0  9991
2 69036  97.2841   4.9982 0001308 121.4878 210.7249 15.49316826  5030
STARLINK-37608          
1 69037U 26101N   26150.16668980 -.00970064  00000+0 -18624-1 0  9992
2 69037  97.2848   5.0679 0001992  86.7964  44.6049 15.50451641  5063
STARLINK-37466          
1 69038U 26101P   26150.16668980  .00034130  00000+0  62706-3 0  9998
2 69038  97.2837   4.9894 0001440  86.7414 224.3977 15.49162408  5062
STARLINK-37612          
1 69039U 26101Q   26150.16668980 -.00711862  00000+0 -12684-1 0  9993
2 69039  97.2846   5.0852 0001747  89.9402  84.4865 15.52575799  5067
STARLINK-37616          
1 69040U 26101R   26150.16668980 -.01388840  00000+0 -22204-1 0  9991
2 69040  97.2836   5.1118 0002008 103.1262 134.1972 15.56025292  5062
STARLINK-37614          
1 69041U 26101S   26150.16668980  .00037884  00000+0  69550-3 0  9995
2 69041  97.2853   5.0711 0001686 104.2316  39.9045 15.49162969  5061
STARLINK-37644          
1 69042U 26101T   26150.16668980  .00016872  00000+0  31132-3 0  9995
2 69042  97.2844   5.0750 0001236 120.8541  32.8677 15.49179799  5062
STARLINK-37571          
1 69043U 26101U   26150.16668980 -.02056062  00000+0 -40291-1 0  9999
2 69043  97.2847   5.0796 0002133  65.3115  98.6617 15.50643002  5062
STARLINK-37664          
1 69044U 26101V   26150.16668980  .00052489  00000+0  96152-3 0  9994
2 69044  97.2840   4.9949 0001595  99.5773 220.9998 15.49153387  5033
STARLINK-37667          
1 69045U 26101W   26150.16668980 -.02578811  00000+0 -37340-1 0  9993
2 69045  97.2836   5.1594 0001494 110.2947 243.3052 15.59683518  5068
STARLINK-37666          
1 69046U 26101X   26150.16668980 -.01928292  00000+0 -25698-1 0  9998
2 69046  97.2839   5.1698 0001359 110.7289 257.6741 15.61354226  5068
STARLINK-37576          
1 69047U 26101Y   26150.16668980 -.01929297  00000+0 -25502-1 0  9999
2 69047  97.2842   5.1759 0001399 101.8733 278.9850 15.61565451  5038
STARLINK-37663          
1 69048U 26101Z   26150.16668980  .00047502  00000+0  87083-3 0  9991
2 69048  97.2849   5.0916 0001544 101.8870  86.6998 15.49155003  5068
TIANZHOU-10             
1 69049U 26102A   26149.92832235  .00026428  00000+0  32007-3 0  9991
2 69049  41.4693  73.0539 0010653 305.7656  54.2192 15.59989407  3015
QIANFAN-127             
1 69073U 26104A   26150.10817161  .00000160  00000+0  66475-4 0  9995
2 69073  88.9863 343.6772 0004576 153.3263 206.8164 14.21689412  2520
QIANFAN-128             
1 69074U 26104B   26150.14665940  .00000144  00000+0  63383-4 0  9993
2 69074  88.9864 343.6832 0003878 148.7778 211.3642 14.18044451  2528
QIANFAN-129             
1 69075U 26104C   26150.15493343  .00000156  00000+0  59929-4 0  9995
2 69075  88.9863 343.6655 0004137 159.6624 200.4735 14.25498835  2531
QIANFAN-130             
1 69076U 26104D   26150.13672622  .00000156  00000+0  68457-4 0  9999
2 69076  88.9863 343.6816 0004030 138.7199 221.4295 14.18733710  2527
